NUSAT-48 (HENRIETTA LE*)
1 60498U 24149AG  26068.80506098  .00012988  00000+0  45212-3 0  9999
2 60498  97.3923 150.8264 0002754 263.3026  96.7901 15.29812597 86946
STARLINK-33837          
1 63501U 25071J   26068.47868035  .00020767  00000+0  71147-3 0  9997
2 63501  53.1575 141.1847 0001329  72.9359 287.1787 15.30193046 52671
